<?xml version="1.0" encoding="UTF-8"?>
<kml xmlns="http://www.opengis.net/kml/2.2">
<Document>
  <name>Sample survey</name>
  <Folder>
    <name>Plots</name>
    <Placemark>
      <name>Plot A</name>
      <ExtendedData>
        <Data name="owner"><value>Asha</value></Data>
        <Data name="crop"><value>rice</value></Data>
      </ExtendedData>
      <Polygon><outerBoundaryIs><LinearRing><coordinates>77.5901294,12.9677922 77.5901369,12.9685149 77.5910580,12.9685057 77.5910505,12.9677831 77.5901294,12.9677922</coordinates></LinearRing></outerBoundaryIs></Polygon>
    </Placemark>
    <Placemark>
      <name>Plots B and C</name>
      <MultiGeometry><Polygon><outerBoundaryIs><LinearRing><coordinates>77.5915111,12.9677785 77.5915157,12.9682302 77.5919763,12.9682256 77.5919716,12.9677739 77.5915111,12.9677785</coordinates></LinearRing></outerBoundaryIs></Polygon><Polygon><outerBoundaryIs><LinearRing><coordinates>77.5919716,12.9677739 77.5919763,12.9682256 77.5924368,12.9682210 77.5924322,12.9677693 77.5919716,12.9677739</coordinates></LinearRing></outerBoundaryIs></Polygon></MultiGeometry>
    </Placemark>
  </Folder>
  <Folder>
    <name>Infrastructure</name>
    <Placemark>
      <name>Access road</name>
      <LineString><coordinates>77.5901276,12.9676116 77.5912329,12.9676006 77.5912244,12.9667876</coordinates></LineString>
    </Placemark>
    <Placemark>
      <name>Well</name>
      <Point><coordinates>77.5905937,12.9681490</coordinates></Point>
    </Placemark>
  </Folder>
</Document>
</kml>
